#aV2021  6 17  0  0  0.00000000     288 DD+AD WGS84 FIT  NGA
## 2162 345600.00000000   300.00000000 59382 0.0000000000000
+   31     1  2  3  4  5  6  7  8  9 10 12 13 14 15 16 17 18
+         19 20 21 22 23 24 25 26 27 28 29 30 31 32  0  0  0
+          0  0  0  0  0  0  0  0  0  0  0  0  0  0  0  0  0
+          0  0  0  0  0  0  0  0  0  0  0  0  0  0  0  0  0
+          0  0  0  0  0  0  0  0  0  0  0  0  0  0  0  0  0
++         2  2  2  2  2  2  2  2  2  2  2  2  2  2  2  2  2
++         2  2  2  2  2  2  2  2  2  2  2  2  2  2  0  0  0
++         0  0  0  0  0  0  0  0  0  0  0  0  0  0  0  0  0
++         0  0  0  0  0  0  0  0  0  0  0  0  0  0  0  0  0
++         0  0  0  0  0  0  0  0  0  0  0  0  0  0  0  0  0
%c cc cc ccc ccc cccc cccc cccc cccc ccccc ccccc ccccc ccccc
%c cc cc ccc ccc cccc cccc cccc cccc ccccc ccccc ccccc ccccc
%f  0.0000000  0.000000000  0.00000000000  0.000000000000000
%f  0.0000000  0.000000000  0.00000000000  0.000000000000000
%i    0    0    0    0      0      0      0      0         0
%i    0    0    0    0      0      0      0      0         0
/*      NGA, ST. LOUIS,MO.                                  
/*   EPHEMERIS COMPUTED FROM 2 DAYS OF DATA                 
/*   EPOCHA v6 SMOOTHER                                     
/*   G2139 IERS2010 SATIGS SATAPC                           
*  2021  6 17 14 30  0.00000000
P  1  13295.300525 -16326.699037  15707.593033    655.643069                    
V  1  -1663.854383  20530.782375  22705.340961     -0.116946                    
P  2 -13569.442084  -8668.844479 -20462.354820   -613.053171                    
V  2   3152.954766 -27326.785354   9253.725871     -0.028923                    
P  3  22691.121277 -12655.138827  -5296.877224   -194.581278                    
V  3   7100.319179    -15.637737  31078.683218     -0.107146                    
P  4  14091.322952  -7472.539486 -21238.591423   -200.124274                    
V  4  20037.662889  18075.653741   6873.491822     -0.011165                    
P  5 -24995.779807   4338.800176  -8337.777254    -45.221513                    
V  5   8483.621356  -6411.619709 -29143.673590     -0.011381                    
P  6  -7638.504138 -19713.960704 -15985.727906     28.098621                    
V  6   4651.606053 -19892.219008  22285.849904      0.047132                    
P  7   6479.896866 -25225.721690  -3229.386227    180.540587                    
V  7   2749.085544   5115.222091 -31514.124112      0.096456                    
P  8  20709.272935   1482.552749  16724.293528    -25.427037                    
V  8  15754.527384  14155.403426 -20448.832086     -0.015054                    
P  9   3204.878856 -16247.823384 -20820.483864   -351.544900                    
V  9  21314.146329  15487.506746  -8852.491092     -0.018666                    
P 10   3813.559472  14650.614011  21927.035608   -144.170241                    
V 10 -25775.201580   9731.685054  -2292.903439     -0.075905                    
P 12 -23987.946519  10453.031252  -4356.578993    -56.250500                    
V 12  -5718.964607   -812.064005  31489.958441     -0.052381                    
P 13 -21312.120490 -10673.748077  11730.840014    146.066119                    
V 13  -8827.202447 -12361.054901 -26842.732226      0.048795                    
P 14  -3074.096668 -15059.389818  21652.408759     67.257512                    
V 14  26158.116089  -8572.698314  -2284.160150     -0.075729                    
P 15 -20954.095864   1059.392202  16118.542827   -141.751173                    
V 15 -16611.842556 -13241.472681 -19916.434919      0.026270                    
P 16  23623.222166   2181.437487 -12645.124074   -342.747532                    
V 16 -14437.455177   5780.835012 -26047.927442     -0.060547                    
P 17 -10069.362767 -21036.858383  13129.279489    459.900396                    
V 17  12878.031613   9539.616086  26014.750401      0.060089                    
P 18  -4984.355530  26044.393722   -479.894041    346.280384                    
V 18  -2495.792245  -1050.273068 -31961.836518     -0.018894                    
P 19 -16628.008079 -20355.762366   3989.409349     14.585889                    
V 19   5294.288293   2331.162951  31568.293368      0.049800                    
P 20 -23766.134276   4551.992096 -10578.384770    521.079872                    
V 20  10185.031394  -9550.733144 -27332.874270     -0.003853                    
P 21  15283.047021  -8165.031119  20702.545895    125.624990                    
V 21   -874.395834  24882.602603  11329.870224      0.024659                    
P 22  24607.224348  -8634.323159   4629.390397   -586.157625                    
V 22  -3426.445828   5862.539927  30567.406567      0.096290                    
P 23  -8809.386057  17270.590211  18108.772885     95.778614                    
V 23 -21864.674636   7447.803196 -17769.187184     -0.043132                    
P 24 -14641.554769  11684.029901  18431.055225    136.472844                    
V 24    -31.537075 -24231.514598  15527.709577      0.177129                    
P 25 -15400.260919  16512.853317 -14029.952693    157.539599                    
V 25 -17111.673232   4228.788813  24478.340393      0.068618                    
P 26  16640.148963   7986.498240 -19248.548404     99.540882                    
V 26 -21695.348676  11028.985593 -13952.279341      0.047857                    
P 27  22785.264873  11275.217773   8135.249082   -148.634874                    
V 27   6935.890459   8064.445177 -29584.296725     -0.061911                    
P 28  -9228.532521 -12861.800817  21850.866995    553.110661                    
V 28  25314.919379  -7678.927396   6515.920835     -0.063561                    
P 29  -4933.595012  14922.988387 -21451.564878   -365.629283                    
V 29 -20143.217328 -18083.049830  -8016.820868     -0.062641                    
P 30  -2110.174253 -24844.598866   8865.761617   -440.095938                    
V 30   5394.723104 -10484.535753 -28538.680419     -0.046537                    
P 31   9560.819825  17213.756293 -17683.302582   -123.586283                    
V 31  -5965.635299  21766.477230  18508.931107     -0.021431                    
P 32  13557.437232  20363.906622  10667.415119     18.134475                    
V 32 -11931.190685  -6401.891427  27513.790284     -0.014340                    
EOF
